{
  "type": "Feature",
  "geometry": {
    "type": "MultiPolygon",
    "coordinates": [
      [
        [
          [
            0.35,
            0.22
          ],
          [
            0.5,
            0.22
          ],
          [
            0.5,
            0.35
          ],
          [
            0.35,
            0.35
          ],
          [
            0.35,
            0.22
          ]
        ],
        [
          [
            0.48,
            0.28
          ],
          [
            0.65,
            0.28
          ],
          [
            0.65,
            0.4
          ],
          [
            0.48,
            0.4
          ],
          [
            0.48,
            0.28
          ]
        ]
      ]
    ]
  },
  "properties": {
    "entity": "building_structures",
    "detection": "upper_and_central_clusters"
  }
}